STARLINK-36569          
1 67553U 26014X   26039.85039776  .00162396  00000+0  83031-3 0  9998
2 67553  97.2753 283.3543 0001245  88.9852 271.1559 15.80883496  4029
STARLINK-36395          
1 67554U 26014Y   26039.91670139 -.00127408  00000+0 -86369-3 0  9994
2 67554  97.2854 283.4133 0001334 105.3884 240.1447 15.75254268  4065
STARLINK-36559          
1 67555U 26014Z   26039.91670139  .00004116  00000+0  28477-4 0  9990
2 67555  97.2869 283.4091 0001592 109.8063 227.7476 15.75169676  4060
MR-1                    
1 67556U 26015A   26039.71606057  .00000029  00000+0  24761-4 0  9999
2 67556  88.9979 281.6073 0005121  90.4042 269.7697 13.52686071  2340
MR-2                    
1 67557U 26015B   26039.71637421  .00000021  00000+0  12924-4 0  9999
2 67557  88.9978 281.6075 0005179  89.4953 270.6793 13.52660943  2342
ELECTRON R/B            
1 67558U 26015C   26039.92941969  .01918830 -88003-6  14519-2 0  9992
2 67558  88.9978 281.0890 0485434 206.0215 151.5892 15.21292744  2622
ELECTRON KICK STAGE R/B 
1 67559U 26015D   26039.68061437  .00057658  88228-7  97697-3 0  9998
2 67559  89.0513 281.3289 0531536 275.1626  78.9166 14.67450881  2536
STARLINK-36426          
1 67560U 26014AA  26039.84929526  .00216107  00000+0  10968-2 0  9994
2 67560  97.2852 283.3569 0001282  98.8424 261.2990 15.80904984  4026
STARLINK-36621          
1 67561U 26016A   26039.91670139 -.00047136  00000+0 -24633-3 0  9999
2 67561  97.2844  98.8896 0001344  91.2640  54.7106 15.80845799  3421
STARLINK-36398          
1 67562U 26016B   26039.91670139 -.00068978  00000+0 -46472-3 0  9992
2 67562  97.2809  98.8852 0001184  66.7345  70.1656 15.75220301  3406
STARLINK-36403          
1 67563U 26016C   26039.91670139 -.00035940  00000+0 -18751-3 0  9995
2 67563  97.2842  98.8949 0001407  99.3701  59.2809 15.80832987  3523
STARLINK-36593          
1 67564U 26016D   26039.91670139 -.00055821  00000+0 -29215-3 0  9993
2 67564  97.2842  98.8978 0001527  78.1974  87.4079 15.80844658  3368
