CCSDS_OMM_VERS = 2.0
CREATION_DATE  = 
ORIGINATOR     = 

OBJECT_NAME    = STARLINK-36569
OBJECT_ID      = 2026-014X
CENTER_NAME    = EARTH
REF_FRAME      = TEME
TIME_SYSTEM    = UTC
MEAN_ELEMENT_THEORY = SGP/SGP4

EPOCH          = 2026-02-08T20:24:34.366464
MEAN_MOTION    = 15.80883496
ECCENTRICITY   = .0001245
INCLINATION    = 97.2753
RA_OF_ASC_NODE = 283.3543
ARG_OF_PERICENTER = 88.9852
MEAN_ANOMALY   = 271.1559

EPHEMERIS_TYPE = 0
CLASSIFICATION_TYPE = U
NORAD_CAT_ID   = 67553
ELEMENT_SET_NO = 999
REV_AT_EPOCH   = 402
BSTAR          = .83031441E-3
MEAN_MOTION_DOT = .162396E-2
MEAN_MOTION_DDOT = 0

CCSDS_OMM_VERS = 2.0
CREATION_DATE  = 
ORIGINATOR     = 

OBJECT_NAME    = STARLINK-36395
OBJECT_ID      = 2026-014Y
CENTER_NAME    = EARTH
REF_FRAME      = TEME
TIME_SYSTEM    = UTC
MEAN_ELEMENT_THEORY = SGP/SGP4

EPOCH          = 2026-02-08T22:00:03.000096
MEAN_MOTION    = 15.75254268
ECCENTRICITY   = .00013342
INCLINATION    = 97.2854
RA_OF_ASC_NODE = 283.4133
ARG_OF_PERICENTER = 105.3884
MEAN_ANOMALY   = 240.1447

EPHEMERIS_TYPE = 0
CLASSIFICATION_TYPE = U
NORAD_CAT_ID   = 67554
ELEMENT_SET_NO = 999
REV_AT_EPOCH   = 406
BSTAR          = -.86369253E-3
MEAN_MOTION_DOT = -.127408E-2
MEAN_MOTION_DDOT = 0

CCSDS_OMM_VERS = 2.0
CREATION_DATE  = 
ORIGINATOR     = 

OBJECT_NAME    = STARLINK-36559
OBJECT_ID      = 2026-014Z
CENTER_NAME    = EARTH
REF_FRAME      = TEME
TIME_SYSTEM    = UTC
MEAN_ELEMENT_THEORY = SGP/SGP4

EPOCH          = 2026-02-08T22:00:03.000096
MEAN_MOTION    = 15.75169676
ECCENTRICITY   = .00015929
INCLINATION    = 97.2869
RA_OF_ASC_NODE = 283.4091
ARG_OF_PERICENTER = 109.8063
MEAN_ANOMALY   = 227.7476

EPHEMERIS_TYPE = 0
CLASSIFICATION_TYPE = U
NORAD_CAT_ID   = 67555
ELEMENT_SET_NO = 999
REV_AT_EPOCH   = 406
BSTAR          = .28477186E-4
MEAN_MOTION_DOT = .4116E-4
MEAN_MOTION_DDOT = 0

CCSDS_OMM_VERS = 2.0
CREATION_DATE  = 
ORIGINATOR     = 

OBJECT_NAME    = MR-1
OBJECT_ID      = 2026-015A
CENTER_NAME    = EARTH
REF_FRAME      = TEME
TIME_SYSTEM    = UTC
MEAN_ELEMENT_THEORY = SGP/SGP4

EPOCH          = 2026-02-08T17:11:07.633248
MEAN_MOTION    = 13.52686071
ECCENTRICITY   = .00051217
INCLINATION    = 88.9979
RA_OF_ASC_NODE = 281.6073
ARG_OF_PERICENTER = 90.4042
MEAN_ANOMALY   = 269.7697

EPHEMERIS_TYPE = 0
CLASSIFICATION_TYPE = U
NORAD_CAT_ID   = 67556
ELEMENT_SET_NO = 999
REV_AT_EPOCH   = 234
BSTAR          = .24760743E-4
MEAN_MOTION_DOT = .29E-6
MEAN_MOTION_DDOT = 0

CCSDS_OMM_VERS = 2.0
CREATION_DATE  = 
ORIGINATOR     = 

OBJECT_NAME    = MR-2
OBJECT_ID      = 2026-015B
CENTER_NAME    = EARTH
REF_FRAME      = TEME
TIME_SYSTEM    = UTC
MEAN_ELEMENT_THEORY = SGP/SGP4

EPOCH          = 2026-02-08T17:11:34.731744
MEAN_MOTION    = 13.52660943
ECCENTRICITY   = .0005179
INCLINATION    = 88.9978
RA_OF_ASC_NODE = 281.6075
ARG_OF_PERICENTER = 89.4953
MEAN_ANOMALY   = 270.6793

EPHEMERIS_TYPE = 0
CLASSIFICATION_TYPE = U
NORAD_CAT_ID   = 67557
ELEMENT_SET_NO = 999
REV_AT_EPOCH   = 234
BSTAR          = .12924437E-4
MEAN_MOTION_DOT = .21E-6
MEAN_MOTION_DDOT = 0

CCSDS_OMM_VERS = 2.0
CREATION_DATE  = 
ORIGINATOR     = 

OBJECT_NAME    = ELECTRON R/B
OBJECT_ID      = 2026-015C
CENTER_NAME    = EARTH
REF_FRAME      = TEME
TIME_SYSTEM    = UTC
MEAN_ELEMENT_THEORY = SGP/SGP4

EPOCH          = 2026-02-08T22:18:21.861216
MEAN_MOTION    = 15.21292744
ECCENTRICITY   = .04854347
INCLINATION    = 88.9978
RA_OF_ASC_NODE = 281.0890
ARG_OF_PERICENTER = 206.0215
MEAN_ANOMALY   = 151.5892

EPHEMERIS_TYPE = 0
CLASSIFICATION_TYPE = U
NORAD_CAT_ID   = 67558
ELEMENT_SET_NO = 999
REV_AT_EPOCH   = 262
BSTAR          = .14519366E-2
MEAN_MOTION_DOT = .191883E-1
MEAN_MOTION_DDOT = -.880027E-6

CCSDS_OMM_VERS = 2.0
CREATION_DATE  = 
ORIGINATOR     = 

OBJECT_NAME    = ELECTRON KICK STAGE R/B
OBJECT_ID      = 2026-015D
CENTER_NAME    = EARTH
REF_FRAME      = TEME
TIME_SYSTEM    = UTC
MEAN_ELEMENT_THEORY = SGP/SGP4

EPOCH          = 2026-02-08T16:20:05.081568
MEAN_MOTION    = 14.67450881
ECCENTRICITY   = .05315362
INCLINATION    = 89.0513
RA_OF_ASC_NODE = 281.3289
ARG_OF_PERICENTER = 275.1626
MEAN_ANOMALY   = 78.9166

EPHEMERIS_TYPE = 0
CLASSIFICATION_TYPE = U
NORAD_CAT_ID   = 67559
ELEMENT_SET_NO = 999
REV_AT_EPOCH   = 253
BSTAR          = .97697314E-3
MEAN_MOTION_DOT = .57658E-3
MEAN_MOTION_DDOT = .88228E-7

CCSDS_OMM_VERS = 2.0
CREATION_DATE  = 
ORIGINATOR     = 

OBJECT_NAME    = STARLINK-36426
OBJECT_ID      = 2026-014AA
CENTER_NAME    = EARTH
REF_FRAME      = TEME
TIME_SYSTEM    = UTC
MEAN_ELEMENT_THEORY = SGP/SGP4

EPOCH          = 2026-02-08T20:22:59.110464
MEAN_MOTION    = 15.80904984
ECCENTRICITY   = .00012824
INCLINATION    = 97.2852
RA_OF_ASC_NODE = 283.3569
ARG_OF_PERICENTER = 98.8424
MEAN_ANOMALY   = 261.2990

EPHEMERIS_TYPE = 0
CLASSIFICATION_TYPE = U
NORAD_CAT_ID   = 67560
ELEMENT_SET_NO = 999
REV_AT_EPOCH   = 402
BSTAR          = .10967868E-2
MEAN_MOTION_DOT = .216107E-2
MEAN_MOTION_DDOT = 0

CCSDS_OMM_VERS = 2.0
CREATION_DATE  = 
ORIGINATOR     = 

OBJECT_NAME    = STARLINK-36621
OBJECT_ID      = 2026-016A
CENTER_NAME    = EARTH
REF_FRAME      = TEME
TIME_SYSTEM    = UTC
MEAN_ELEMENT_THEORY = SGP/SGP4

EPOCH          = 2026-02-08T22:00:03.000096
MEAN_MOTION    = 15.80845799
ECCENTRICITY   = .00013449
INCLINATION    = 97.2844
RA_OF_ASC_NODE = 98.8896
ARG_OF_PERICENTER = 91.2640
MEAN_ANOMALY   = 54.7106

EPHEMERIS_TYPE = 0
CLASSIFICATION_TYPE = U
NORAD_CAT_ID   = 67561
ELEMENT_SET_NO = 999
REV_AT_EPOCH   = 342
BSTAR          = -.24632993E-3
MEAN_MOTION_DOT = -.47136E-3
MEAN_MOTION_DDOT = 0

CCSDS_OMM_VERS = 2.0
CREATION_DATE  = 
ORIGINATOR     = 

OBJECT_NAME    = STARLINK-36398
OBJECT_ID      = 2026-016B
CENTER_NAME    = EARTH
REF_FRAME      = TEME
TIME_SYSTEM    = UTC
MEAN_ELEMENT_THEORY = SGP/SGP4

EPOCH          = 2026-02-08T22:00:03.000096
MEAN_MOTION    = 15.75220301
ECCENTRICITY   = .00011845
INCLINATION    = 97.2809
RA_OF_ASC_NODE = 98.8852
ARG_OF_PERICENTER = 66.7345
MEAN_ANOMALY   = 70.1656

EPHEMERIS_TYPE = 0
CLASSIFICATION_TYPE = U
NORAD_CAT_ID   = 67562
ELEMENT_SET_NO = 999
REV_AT_EPOCH   = 340
BSTAR          = -.46472174E-3
MEAN_MOTION_DOT = -.68978E-3
MEAN_MOTION_DDOT = 0

CCSDS_OMM_VERS = 2.0
CREATION_DATE  = 
ORIGINATOR     = 

OBJECT_NAME    = STARLINK-36403
OBJECT_ID      = 2026-016C
CENTER_NAME    = EARTH
REF_FRAME      = TEME
TIME_SYSTEM    = UTC
MEAN_ELEMENT_THEORY = SGP/SGP4

EPOCH          = 2026-02-08T22:00:03.000096
MEAN_MOTION    = 15.80832987
ECCENTRICITY   = .0001407
INCLINATION    = 97.2842
RA_OF_ASC_NODE = 98.8949
ARG_OF_PERICENTER = 99.3701
MEAN_ANOMALY   = 59.2809

EPHEMERIS_TYPE = 0
CLASSIFICATION_TYPE = U
NORAD_CAT_ID   = 67563
ELEMENT_SET_NO = 999
REV_AT_EPOCH   = 352
BSTAR          = -.18751147E-3
MEAN_MOTION_DOT = -.3594E-3
MEAN_MOTION_DDOT = 0

CCSDS_OMM_VERS = 2.0
CREATION_DATE  = 
ORIGINATOR     = 

OBJECT_NAME    = STARLINK-36593
OBJECT_ID      = 2026-016D
CENTER_NAME    = EARTH
REF_FRAME      = TEME
TIME_SYSTEM    = UTC
MEAN_ELEMENT_THEORY = SGP/SGP4

EPOCH          = 2026-02-08T22:00:03.000096
MEAN_MOTION    = 15.80844658
ECCENTRICITY   = .00015279
INCLINATION    = 97.2842
RA_OF_ASC_NODE = 98.8978
ARG_OF_PERICENTER = 78.1974
MEAN_ANOMALY   = 87.4079

EPHEMERIS_TYPE = 0
CLASSIFICATION_TYPE = U
NORAD_CAT_ID   = 67564
ELEMENT_SET_NO = 999
REV_AT_EPOCH   = 336
BSTAR          = -.29215474E-3
MEAN_MOTION_DOT = -.55821E-3
MEAN_MOTION_DDOT = 0

